{
  "norad_id": 60575,
  "name": "HAWK-10C",
  "history": [
    {
      "epoch": "2026-03-28T22:14:30.127776",
      "apogee_km": 580.3883550475584,
      "perigee_km": 576.5983828225626,
      "latitude_deg": 84.89359007578193,
      "longitude_deg": -33.533191360067576,
      "semi_major_axis_km": 6956.63036893506,
      "eccentricity": 0.0002724,
      "inclination_deg": 97.6769,
      "raan_deg": 164.0767,
      "arg_perigee_deg": 350.6431,
      "mean_anomaly_deg": 9.4739,
      "mean_motion_rev_day": 14.9625071
    },
    {
      "epoch": "2026-03-29T04:39:42.158880",
      "apogee_km": 580.3666988757077,
      "perigee_km": 576.6059483069757,
      "latitude_deg": -39.43402575111614,
      "longitude_deg": -7.853156799916178,
      "semi_major_axis_km": 6956.623323591341,
      "eccentricity": 0.0002703,
      "inclination_deg": 97.6769,
      "raan_deg": 164.339,
      "arg_perigee_deg": 349.23,
      "mean_anomaly_deg": 10.8863,
      "mean_motion_rev_day": 14.96252983
    }
  ]
}